ONEWEB-0395             
1 50475U 21132G   26155.12029159 -.00000515  00000+0 -14897-2 0  9991
2 50475  87.8903  23.6698 0001898  91.0290 269.1056 13.11416427214005
ONEWEB-0396             
1 50476U 21132H   26155.04059022  .00000070  00000+0  14522-3 0  9995
2 50476  87.9167 338.0708 0001928  88.9866 271.1487 13.18688805219905
ONEWEB-0397             
1 50477U 21132J   26155.05576913 -.00000139  00000+0 -38609-3 0  9990
2 50477  87.9163 338.0680 0001878  87.0199 273.1148 13.18687110219885
ONEWEB-0398             
1 50478U 21132K   26154.63030347  .00000520  00000+0  14311-2 0  9995
2 50478  87.8902  23.7554 0001788  97.3273 262.8058 13.11417062213835
ONEWEB-0399             
1 50479U 21132L   26155.07452217  .00000408  00000+0  11154-2 0  9996
2 50479  87.8908  23.6773 0002300  79.5222 280.6165 13.11418283213889
ONEWEB-0400             
1 50480U 21132M   26155.03385327 -.00000011  00000+0 -61690-4 0  9995
2 50480  87.9166 338.0618 0001806  95.7975 264.3363 13.18684424219877
ONEWEB-0401             
1 50481U 21132N   26155.00349957  .00000033  00000+0  49734-4 0  9999
2 50481  87.9160 338.0637 0001790  98.0099 262.1236 13.18688571219870
ONEWEB-0402             
1 50482U 21132P   26155.04229806 -.00000013  00000+0 -65244-4 0  9998
2 50482  87.9167 338.0466 0001768  72.9285 287.2041 13.18688352219904
ONEWEB-0403             
1 50483U 21132Q   26155.06757192  .00000089  00000+0  19210-3 0  9997
2 50483  87.9164 338.0651 0001973  95.6329 264.5028 13.18688113219860
ONEWEB-0404             
1 50484U 21132R   26155.05586339 -.00000381  00000+0 -11106-2 0  9992
2 50484  87.8902  23.6805 0002103  89.0586 271.0783 13.11417521213979
ONEWEB-0405             
1 50485U 21132S   26155.00520293  .00000031  00000+0  46522-4 0  9997
2 50485  87.9169 338.0625 0001734 104.2848 255.8477 13.18685745220250
ONEWEB-0406             
1 50486U 21132T   26155.07263111 -.00000093  00000+0 -26959-3 0  9999
2 50486  87.9160 338.0657 0002291 102.2851 257.8538 13.18686695219891
ONEWEB-0407             
1 50487U 21132U   26155.06589575 -.00000012  00000+0 -63931-4 0  9997
2 50487  87.9168 338.0593 0001615  86.6598 273.4719 13.18686251219838
ONEWEB-0409             
1 50488U 21132V   26154.59638628 -.00000408  00000+0 -11862-2 0  9992
2 50488  87.8904  23.7586 0002102  81.3153 278.8213 13.11418567213802
ONEWEB-0412             
1 50489U 21132W   26155.05408210  .00000007  00000+0 -14635-4 0  9994
2 50489  87.9167 338.0704 0001786  78.5594 281.5739 13.18688583219920
ONEWEB-0413             
1 50490U 21132X   26155.05912878  .00000203  00000+0  48207-3 0  9994
2 50490  87.9150 338.0689 0001563  86.4138 273.7173 13.18680665219862
ONEWEB-0414             
1 50491U 21132Y   26155.04396959  .00000005  00000+0 -20093-4 0  9995
2 50491  87.9166 338.0523 0001918  84.9187 275.2164 13.18684553219898
ONEWEB-0417             
1 50492U 21132Z   26155.05239920  .00000026  00000+0  33255-4 0  9997
2 50492  87.9158 338.0717 0002051  93.3886 266.7481 13.18684625219879
ONEWEB-0418             
1 50493U 21132AA  26155.06238937  .00000007  00000+0 -15177-4 0  9999
2 50493  87.9161 338.0675 0002211  98.7097 261.4286 13.18686110219931
ONEWEB-0419             
1 50494U 21132AB  26155.00490270  .00000125  00000+0  28433-3 0  9992
2 50494  87.9174 338.0818 0001998 111.0199 249.1147 13.18665998219848
ONEWEB-0420             
1 50495U 21132AC  26155.04565526 -.00000010  00000+0 -59340-4 0  9991
2 50495  87.9157 338.0751 0001641  92.5636 267.5684 13.18684534219847
ONEWEB-0421             
1 50496U 21132AD  26155.03890881  .00000183  00000+0  43246-3 0  9992
2 50496  87.9168 338.0705 0002254  84.4536 275.6854 13.18695990219880
ONEWEB-0424             
1 50497U 21132AE  26155.07600723  .00000075  00000+0  15641-3 0  9999
2 50497  87.9166 338.0630 0001901 108.0579 252.0760 13.18688254219918
ONEWEB-0426             
1 50498U 21132AF  26155.03471383 -.00000003  00000+0 -41545-4 0  9990
2 50498  87.9166 338.0631 0002504  83.4681 276.6736 13.18687861219851
ONEWEB-0427             
1 50499U 21132AG  26154.54318536  .00000117  00000+0  26496-3 0  9997
2 50499  87.9167 338.1493 0002081  91.7524 268.3847 13.18688125219819
ONEWEB-0429             
1 50500U 21132AH  26155.06083260  .00000078  00000+0  16491-3 0  9991
2 50500  87.9154 338.0716 0001733  94.2239 265.9091 13.18685063219855
ONEWEB-0430             
1 50501U 21132AJ  26155.04902965  .00000103  00000+0  22876-3 0  9995
2 50501  87.9158 338.0725 0001604  96.4261 263.7053 13.18685613219895
ONEWEB-0432             
1 50502U 21132AK  26155.00599003  .00000085  00000+0  18223-3 0  9997
2 50502  87.9181 338.0556 0001575 101.8009 258.3300 13.18683130219844
ONEWEB-0440             
1 50503U 21132AL  26155.06925726 -.00000102  00000+0 -29138-3 0  9998
2 50503  87.9164 338.0634 0001578  81.7730 278.3581 13.18686994219847
ONEWEB-0450             
1 50504U 21132AM  26155.06266460  .00000075  00000+0  15727-3 0  9998
2 50504  87.9153 338.0713 0001621  93.4740 266.6577 13.18687690219876
